KUIPER-00016            
1 63732U 25088J   25200.91484967 -.00031226  00000+0 -15926-2 0  9991
2 63732  51.8856  65.7177 0009535  30.4620 329.6910 15.16031513 12791
KUIPER-00018            
1 63733U 25088K   25200.34246730  .00011816  00000+0  32971-3 0  9994
2 63733  51.8682  65.0377 0006238  40.4210 319.7239 15.37160844 12750
KUIPER-00019            
1 63734U 25088L   25200.00980448  .00012589  00000+0  35247-3 0  9996
2 63734  51.8686  66.5671 0004004  55.5964 304.5401 15.36996598 12700
KUIPER-00020            
1 63735U 25088M   25200.90484182 -.00154287  00000+0 -49878-2 0  9998
2 63735  51.8694  62.7926 0005696  44.5737 315.5705 15.32126120 13044
KUIPER-00021            
1 63736U 25088N   25200.91668981 -.00008455  00000+0 -27760-3 0  9993
2 63736  51.8703  63.0231 0004926  49.8796 240.0661 15.29690622  5770
KUIPER-00023            
1 63737U 25088P   25200.90534581 -.00139542  00000+0 -52412-2 0  9994
2 63737  51.8665  63.5585 0008261  47.5013 312.6666 15.27185391 13161
KUIPER-00024            
1 63738U 25088Q   25200.33891571  .00010061  00000+0  27244-3 0  9995
2 63738  51.8728  64.3062 0002236  94.0235 266.1008 15.38285649 13230
KUIPER-00025            
1 63739U 25088R   25200.86984084 -.00193920  00000+0 -55565-2 0  9990
2 63739  51.8712  62.5620 0004852  36.8830 323.2490 15.36102669 13165
