<?xml version="1.0" encoding="UTF-8"?>
<ndm xmlns:xsi="http://www.w3.org/2001/XMLSchema-instance" xsi:noNamespaceSchemaLocation="https://sanaregistry.org/r/ndmxml_unqualified/ndmxml-2.0.0-master-2.0.xsd">
<omm id="CCSDS_OMM_VERS" version="2.0">
<header><CREATION_DATE/><ORIGINATOR/></header><body><segment><metadata><OBJECT_NAME>KUIPER-00016</OBJECT_NAME><OBJECT_ID>2025-088J</OBJECT_ID><CENTER_NAME>EARTH</CENTER_NAME><REF_FRAME>TEME</REF_FRAME><TIME_SYSTEM>UTC</TIME_SYSTEM><MEAN_ELEMENT_THEORY>SGP4</MEAN_ELEMENT_THEORY></metadata><data><meanElements><EPOCH>2025-07-19T21:57:23.011488</EPOCH><MEAN_MOTION>15.16031513</MEAN_MOTION><ECCENTRICITY>.0009535</ECCENTRICITY><INCLINATION>51.8856</INCLINATION><RA_OF_ASC_NODE>65.7177</RA_OF_ASC_NODE><ARG_OF_PERICENTER>30.4620</ARG_OF_PERICENTER><MEAN_ANOMALY>329.6910</MEAN_ANOMALY></meanElements><tleParameters><EPHEMERIS_TYPE>0</EPHEMERIS_TYPE><CLASSIFICATION_TYPE>U</CLASSIFICATION_TYPE><NORAD_CAT_ID>63732</NORAD_CAT_ID><ELEMENT_SET_NO>999</ELEMENT_SET_NO><REV_AT_EPOCH>1279</REV_AT_EPOCH><BSTAR>-.15926E-2</BSTAR><MEAN_MOTION_DOT>-.31226E-3</MEAN_MOTION_DOT><MEAN_MOTION_DDOT>0</MEAN_MOTION_DDOT></tleParameters></data></segment></body></omm>
<omm id="CCSDS_OMM_VERS" version="2.0">
<header><CREATION_DATE/><ORIGINATOR/></header><body><segment><metadata><OBJECT_NAME>KUIPER-00018</OBJECT_NAME><OBJECT_ID>2025-088K</OBJECT_ID><CENTER_NAME>EARTH</CENTER_NAME><REF_FRAME>TEME</REF_FRAME><TIME_SYSTEM>UTC</TIME_SYSTEM><MEAN_ELEMENT_THEORY>SGP4</MEAN_ELEMENT_THEORY></metadata><data><meanElements><EPOCH>2025-07-19T08:13:09.174720</EPOCH><MEAN_MOTION>15.37160844</MEAN_MOTION><ECCENTRICITY>.0006238</ECCENTRICITY><INCLINATION>51.8682</INCLINATION><RA_OF_ASC_NODE>65.0377</RA_OF_ASC_NODE><ARG_OF_PERICENTER>40.4210</ARG_OF_PERICENTER><MEAN_ANOMALY>319.7239</MEAN_ANOMALY></meanElements><tleParameters><EPHEMERIS_TYPE>0</EPHEMERIS_TYPE><CLASSIFICATION_TYPE>U</CLASSIFICATION_TYPE><NORAD_CAT_ID>63733</NORAD_CAT_ID><ELEMENT_SET_NO>999</ELEMENT_SET_NO><REV_AT_EPOCH>1275</REV_AT_EPOCH><BSTAR>.32971E-3</BSTAR><MEAN_MOTION_DOT>.11816E-3</MEAN_MOTION_DOT><MEAN_MOTION_DDOT>0</MEAN_MOTION_DDOT></tleParameters></data></segment></body></omm>
<omm id="CCSDS_OMM_VERS" version="2.0">
<header><CREATION_DATE/><ORIGINATOR/></header><body><segment><metadata><OBJECT_NAME>KUIPER-00019</OBJECT_NAME><OBJECT_ID>2025-088L</OBJECT_ID><CENTER_NAME>EARTH</CENTER_NAME><REF_FRAME>TEME</REF_FRAME><TIME_SYSTEM>UTC</TIME_SYSTEM><MEAN_ELEMENT_THEORY>SGP4</MEAN_ELEMENT_THEORY></metadata><data><meanElements><EPOCH>2025-07-19T00:14:07.107072</EPOCH><MEAN_MOTION>15.36996598</MEAN_MOTION><ECCENTRICITY>.0004004</ECCENTRICITY><INCLINATION>51.8686</INCLINATION><RA_OF_ASC_NODE>66.5671</RA_OF_ASC_NODE><ARG_OF_PERICENTER>55.5964</ARG_OF_PERICENTER><MEAN_ANOMALY>304.5401</MEAN_ANOMALY></meanElements><tleParameters><EPHEMERIS_TYPE>0</EPHEMERIS_TYPE><CLASSIFICATION_TYPE>U</CLASSIFICATION_TYPE><NORAD_CAT_ID>63734</NORAD_CAT_ID><ELEMENT_SET_NO>999</ELEMENT_SET_NO><REV_AT_EPOCH>1270</REV_AT_EPOCH><BSTAR>.35247E-3</BSTAR><MEAN_MOTION_DOT>.12589E-3</MEAN_MOTION_DOT><MEAN_MOTION_DDOT>0</MEAN_MOTION_DDOT></tleParameters></data></segment></body></omm>
<omm id="CCSDS_OMM_VERS" version="2.0">
<header><CREATION_DATE/><ORIGINATOR/></header><body><segment><metadata><OBJECT_NAME>KUIPER-00020</OBJECT_NAME><OBJECT_ID>2025-088M</OBJECT_ID><CENTER_NAME>EARTH</CENTER_NAME><REF_FRAME>TEME</REF_FRAME><TIME_SYSTEM>UTC</TIME_SYSTEM><MEAN_ELEMENT_THEORY>SGP4</MEAN_ELEMENT_THEORY></metadata><data><meanElements><EPOCH>2025-07-19T21:42:58.333248</EPOCH><MEAN_MOTION>15.32126120</MEAN_MOTION><ECCENTRICITY>.0005696</ECCENTRICITY><INCLINATION>51.8694</INCLINATION><RA_OF_ASC_NODE>62.7926</RA_OF_ASC_NODE><ARG_OF_PERICENTER>44.5737</ARG_OF_PERICENTER><MEAN_ANOMALY>315.5705</MEAN_ANOMALY></meanElements><tleParameters><EPHEMERIS_TYPE>0</EPHEMERIS_TYPE><CLASSIFICATION_TYPE>U</CLASSIFICATION_TYPE><NORAD_CAT_ID>63735</NORAD_CAT_ID><ELEMENT_SET_NO>999</ELEMENT_SET_NO><REV_AT_EPOCH>1304</REV_AT_EPOCH><BSTAR>-.49878E-2</BSTAR><MEAN_MOTION_DOT>-.154287E-2</MEAN_MOTION_DOT><MEAN_MOTION_DDOT>0</MEAN_MOTION_DDOT></tleParameters></data></segment></body></omm>
<omm id="CCSDS_OMM_VERS" version="2.0">
<header><CREATION_DATE/><ORIGINATOR/></header><body><segment><metadata><OBJECT_NAME>KUIPER-00021</OBJECT_NAME><OBJECT_ID>2025-088N</OBJECT_ID><CENTER_NAME>EARTH</CENTER_NAME><REF_FRAME>TEME</REF_FRAME><TIME_SYSTEM>UTC</TIME_SYSTEM><MEAN_ELEMENT_THEORY>SGP4</MEAN_ELEMENT_THEORY></metadata><data><meanElements><EPOCH>2025-07-19T22:00:01.999584</EPOCH><MEAN_MOTION>15.29690622</MEAN_MOTION><ECCENTRICITY>.0004926</ECCENTRICITY><INCLINATION>51.8703</INCLINATION><RA_OF_ASC_NODE>63.0231</RA_OF_ASC_NODE><ARG_OF_PERICENTER>49.8796</ARG_OF_PERICENTER><MEAN_ANOMALY>240.0661</MEAN_ANOMALY></meanElements><tleParameters><EPHEMERIS_TYPE>0</EPHEMERIS_TYPE><CLASSIFICATION_TYPE>U</CLASSIFICATION_TYPE><NORAD_CAT_ID>63736</NORAD_CAT_ID><ELEMENT_SET_NO>999</ELEMENT_SET_NO><REV_AT_EPOCH>577</REV_AT_EPOCH><BSTAR>-.2776E-3</BSTAR><MEAN_MOTION_DOT>-.8455E-4</MEAN_MOTION_DOT><MEAN_MOTION_DDOT>0</MEAN_MOTION_DDOT></tleParameters></data></segment></body></omm>
<omm id="CCSDS_OMM_VERS" version="2.0">
<header><CREATION_DATE/><ORIGINATOR/></header><body><segment><metadata><OBJECT_NAME>KUIPER-00023</OBJECT_NAME><OBJECT_ID>2025-088P</OBJECT_ID><CENTER_NAME>EARTH</CENTER_NAME><REF_FRAME>TEME</REF_FRAME><TIME_SYSTEM>UTC</TIME_SYSTEM><MEAN_ELEMENT_THEORY>SGP4</MEAN_ELEMENT_THEORY></metadata><data><meanElements><EPOCH>2025-07-19T21:43:41.877984</EPOCH><MEAN_MOTION>15.27185391</MEAN_MOTION><ECCENTRICITY>.0008261</ECCENTRICITY><INCLINATION>51.8665</INCLINATION><RA_OF_ASC_NODE>63.5585</RA_OF_ASC_NODE><ARG_OF_PERICENTER>47.5013</ARG_OF_PERICENTER><MEAN_ANOMALY>312.6666</MEAN_ANOMALY></meanElements><tleParameters><EPHEMERIS_TYPE>0</EPHEMERIS_TYPE><CLASSIFICATION_TYPE>U</CLASSIFICATION_TYPE><NORAD_CAT_ID>63737</NORAD_CAT_ID><ELEMENT_SET_NO>999</ELEMENT_SET_NO><REV_AT_EPOCH>1316</REV_AT_EPOCH><BSTAR>-.52412E-2</BSTAR><MEAN_MOTION_DOT>-.139542E-2</MEAN_MOTION_DOT><MEAN_MOTION_DDOT>0</MEAN_MOTION_DDOT></tleParameters></data></segment></body></omm>
<omm id="CCSDS_OMM_VERS" version="2.0">
<header><CREATION_DATE/><ORIGINATOR/></header><body><segment><metadata><OBJECT_NAME>KUIPER-00024</OBJECT_NAME><OBJECT_ID>2025-088Q</OBJECT_ID><CENTER_NAME>EARTH</CENTER_NAME><REF_FRAME>TEME</REF_FRAME><TIME_SYSTEM>UTC</TIME_SYSTEM><MEAN_ELEMENT_THEORY>SGP4</MEAN_ELEMENT_THEORY></metadata><data><meanElements><EPOCH>2025-07-19T08:08:02.317344</EPOCH><MEAN_MOTION>15.38285649</MEAN_MOTION><ECCENTRICITY>.0002236</ECCENTRICITY><INCLINATION>51.8728</INCLINATION><RA_OF_ASC_NODE>64.3062</RA_OF_ASC_NODE><ARG_OF_PERICENTER>94.0235</ARG_OF_PERICENTER><MEAN_ANOMALY>266.1008</MEAN_ANOMALY></meanElements><tleParameters><EPHEMERIS_TYPE>0</EPHEMERIS_TYPE><CLASSIFICATION_TYPE>U</CLASSIFICATION_TYPE><NORAD_CAT_ID>63738</NORAD_CAT_ID><ELEMENT_SET_NO>999</ELEMENT_SET_NO><REV_AT_EPOCH>1323</REV_AT_EPOCH><BSTAR>.27244E-3</BSTAR><MEAN_MOTION_DOT>.10061E-3</MEAN_MOTION_DOT><MEAN_MOTION_DDOT>0</MEAN_MOTION_DDOT></tleParameters></data></segment></body></omm>
<omm id="CCSDS_OMM_VERS" version="2.0">
<header><CREATION_DATE/><ORIGINATOR/></header><body><segment><metadata><OBJECT_NAME>KUIPER-00025</OBJECT_NAME><OBJECT_ID>2025-088R</OBJECT_ID><CENTER_NAME>EARTH</CENTER_NAME><REF_FRAME>TEME</REF_FRAME><TIME_SYSTEM>UTC</TIME_SYSTEM><MEAN_ELEMENT_THEORY>SGP4</MEAN_ELEMENT_THEORY></metadata><data><meanElements><EPOCH>2025-07-19T20:52:34.248576</EPOCH><MEAN_MOTION>15.36102669</MEAN_MOTION><ECCENTRICITY>.0004852</ECCENTRICITY><INCLINATION>51.8712</INCLINATION><RA_OF_ASC_NODE>62.5620</RA_OF_ASC_NODE><ARG_OF_PERICENTER>36.8830</ARG_OF_PERICENTER><MEAN_ANOMALY>323.2490</MEAN_ANOMALY></meanElements><tleParameters><EPHEMERIS_TYPE>0</EPHEMERIS_TYPE><CLASSIFICATION_TYPE>U</CLASSIFICATION_TYPE><NORAD_CAT_ID>63739</NORAD_CAT_ID><ELEMENT_SET_NO>999</ELEMENT_SET_NO><REV_AT_EPOCH>1316</REV_AT_EPOCH><BSTAR>-.55565E-2</BSTAR><MEAN_MOTION_DOT>-.19392E-2</MEAN_MOTION_DOT><MEAN_MOTION_DDOT>0</MEAN_MOTION_DDOT></tleParameters></data></segment></body></omm>

</ndm>
